{
  "type": "FeatureCollection",
  "features": [
    {
      "type": "Feature",
      "properties": {
        "norad_id": 31161,
        "name": "FENGYUN 1C DEB",
        "group": "fengyun-1c-debris",
        "lat": 48.40898595546365,
        "lon": -169.86251858386834,
        "alt_km": 879.7156371908077,
        "timestamp": "2025-12-04T07:39:36.415757+00:00",
        "meta_object_name": "FENGYUN 1C DEB",
        "meta_object_id": "1999-025BHP",
        "meta_epoch": "2025-12-03T12:18:07.609248",
        "meta_mean_motion": 14.09233129,
        "meta_eccentricity": 0.00687419,
        "meta_inclination": 98.7496,
        "meta_ra_of_asc_node": 359.3619,
        "meta_arg_of_pericenter": 16.3,
        "meta_mean_anomaly": 344.036,
        "meta_ephemeris_type": 0,
        "meta_classification_type": "U",
        "meta_norad_cat_id": 31161,
        "meta_element_set_no": 999,
        "meta_rev_at_epoch": 95972,
        "meta_bstar": 0.00045453283,
        "meta_mean_motion_dot": 7.65e-06,
        "meta_mean_motion_ddot": 0,
        "tle_line1": "1 31161U 99025BHP 25337.51258807  .00000765  00000+0  45453-3 0  9994",
        "tle_line2": "2 31161  98.7496 359.3619 0068741  16.3000 344.0360 14.09233129959725"
      },
      "geometry": {
        "type": "Point",
        "coordinates": [
          -169.86251858386834,
          48.40898595546365
        ]
      }
    },
    {
      "type": "Feature",
      "properties": {
        "norad_id": 31165,
        "name": "FENGYUN 1C DEB",
        "group": "fengyun-1c-debris",
        "lat": 7.496946042441981,
        "lon": 36.17156833284849,
        "alt_km": 673.8410763367037,
        "timestamp": "2025-12-04T07:39:36.415766+00:00",
        "meta_object_name": "FENGYUN 1C DEB",
        "meta_object_id": "1999-025BHT",
        "meta_epoch": "2025-12-03T10:28:08.385888",
        "meta_mean_motion": 14.70810655,
        "meta_eccentricity": 0.00692655,
        "meta_inclination": 98.8874,
        "meta_ra_of_asc_node": 36.3892,
        "meta_arg_of_pericenter": 264.0226,
        "meta_mean_anomaly": 110.4183,
        "meta_ephemeris_type": 0,
        "meta_classification_type": "U",
        "meta_norad_cat_id": 31165,
        "meta_element_set_no": 999,
        "meta_rev_at_epoch": 98618,
        "meta_bstar": 0.0017354205,
        "meta_mean_motion_dot": 0.00010955,
        "meta_mean_motion_ddot": 0,
        "tle_line1": "1 31165U 99025BHT 25337.43620817  .00010955  00000+0  17354-2 0  9993",
        "tle_line2": "2 31165  98.8874  36.3892 0069265 264.0226 110.4183 14.70810655986180"
      },
      "geometry": {
        "type": "Point",
        "coordinates": [
          36.17156833284849,
          7.496946042441981
        ]
      }
    },
    {
      "type": "Feature",
      "properties": {
        "norad_id": 31168,
        "name": "FENGYUN 1C DEB",
        "group": "fengyun-1c-debris",
        "lat": 21.6936390073046,
        "lon": 105.28327484912796,
        "alt_km": 639.6169360171107,
        "timestamp": "2025-12-04T07:39:36.415775+00:00",
        "meta_object_name": "FENGYUN 1C DEB",
        "meta_object_id": "1999-025BHW",
        "meta_epoch": "2025-12-03T15:11:37.319712",
        "meta_mean_motion": 14.67216795,
        "meta_eccentricity": 0.01091597,
        "meta_inclination": 98.8905,
        "meta_ra_of_asc_node": 108.1096,
        "meta_arg_of_pericenter": 91.7474,
        "meta_mean_anomaly": 269.6234,
        "meta_ephemeris_type": 0,
        "meta_classification_type": "U",
        "meta_norad_cat_id": 31168,
        "meta_element_set_no": 999,
        "meta_rev_at_epoch": 98987,
        "meta_bstar": 0.0011669113,
        "meta_mean_motion_dot": 7.131e-05,
        "meta_mean_motion_ddot": 0,
        "tle_line1": "1 31168U 99025BHW 25337.63307083  .00007131  00000+0  11669-2 0  9990",
        "tle_line2": "2 31168  98.8905 108.1096 0109159  91.7474 269.6234 14.67216795989873"
      },
      "geometry": {
        "type": "Point",
        "coordinates": [
          105.28327484912796,
          21.6936390073046
        ]
      }
    },
    {
      "type": "Feature",
      "properties": {
        "norad_id": 31169,
        "name": "FENGYUN 1C DEB",
        "group": "fengyun-1c-debris",
        "lat": 39.05074002792113,
        "lon": -3.1491077240948764,
        "alt_km": 759.3255319184682,
        "timestamp": "2025-12-04T07:39:36.415784+00:00",
        "meta_object_name": "FENGYUN 1C DEB",
        "meta_object_id": "1999-025BHX",
        "meta_epoch": "2025-12-03T19:41:29.870304",
        "meta_mean_motion": 14.26310452,
        "meta_eccentricity": 0.00581297,
        "meta_inclination": 99.1573,
        "meta_ra_of_asc_node": 3.8489,
        "meta_arg_of_pericenter": 43.7006,
        "meta_mean_anomaly": 316.8753,
        "meta_ephemeris_type": 0,
        "meta_classification_type": "U",
        "meta_norad_cat_id": 31169,
        "meta_element_set_no": 999,
        "meta_rev_at_epoch": 56977,
        "meta_bstar": 0.0037909595,
        "meta_mean_motion_dot": 9.228e-05,
        "meta_mean_motion_ddot": 0,
        "tle_line1": "1 31169U 99025BHX 25337.82048461  .00009228  00000+0  37910-2 0  9990",
        "tle_line2": "2 31169  99.1573   3.8489 0058129  43.7006 316.8753 14.26310452569778"
      },
      "geometry": {
        "type": "Point",
        "coordinates": [
          -3.1491077240948764,
          39.05074002792113
        ]
      }
    },
    {
      "type": "Feature",
      "properties": {
        "norad_id": 31171,
        "name": "FENGYUN 1C DEB",
        "group": "fengyun-1c-debris",
        "lat": -62.45333605371547,
        "lon": 132.9224113906898,
        "alt_km": 799.1886027861219,
        "timestamp": "2025-12-04T07:39:36.415793+00:00",
        "meta_object_name": "FENGYUN 1C DEB",
        "meta_object_id": "1999-025BHZ",
        "meta_epoch": "2025-12-03T11:09:43.644672",
        "meta_mean_motion": 14.34330829,
        "meta_eccentricity": 0.01562133,
        "meta_inclination": 98.0138,
        "meta_ra_of_asc_node": 327.7993,
        "meta_arg_of_pericenter": 344.5885,
        "meta_mean_anomaly": 173.0615,
        "meta_ephemeris_type": 0,
        "meta_classification_type": "U",
        "meta_norad_cat_id": 31171,
        "meta_element_set_no": 999,
        "meta_rev_at_epoch": 95697,
        "meta_bstar": 0.0068217205,
        "meta_mean_motion_dot": 0.00022011,
        "meta_mean_motion_ddot": 0,
        "tle_line1": "1 31171U 99025BHZ 25337.46508848  .00022011  00000+0  68217-2 0  9992",
        "tle_line2": "2 31171  98.0138 327.7993 0156213 344.5885 173.0615 14.34330829956975"
      },
      "geometry": {
        "type": "Point",
        "coordinates": [
          132.9224113906898,
          -62.45333605371547
        ]
      }
    },
    {
      "type": "Feature",
      "properties": {
        "norad_id": 31172,
        "name": "FENGYUN 1C DEB",
        "group": "fengyun-1c-debris",
        "lat": -54.874606208247805,
        "lon": 150.87789645011114,
        "alt_km": 736.2775853403255,
        "timestamp": "2025-12-04T07:39:36.415802+00:00",
        "meta_object_name": "FENGYUN 1C DEB",
        "meta_object_id": "1999-025BJA",
        "meta_epoch": "2025-12-03T18:48:21.048480",
        "meta_mean_motion": 14.31497932,
        "meta_eccentricity": 0.01481793,
        "meta_inclination": 98.425,
        "meta_ra_of_asc_node": 342.5203,
        "meta_arg_of_pericenter": 295.2463,
        "meta_mean_anomaly": 63.3425,
        "meta_ephemeris_type": 0,
        "meta_classification_type": "U",
        "meta_norad_cat_id": 31172,
        "meta_element_set_no": 999,
        "meta_rev_at_epoch": 97498,
        "meta_bstar": 0.00025788002,
        "meta_mean_motion_dot": 7.26e-06,
        "meta_mean_motion_ddot": 0,
        "tle_line1": "1 31172U 99025BJA 25337.78357695  .00000726  00000+0  25788-3 0  9996",
        "tle_line2": "2 31172  98.4250 342.5203 0148179 295.2463  63.3425 14.31497932974987"
      },
      "geometry": {
        "type": "Point",
        "coordinates": [
          150.87789645011114,
          -54.874606208247805
        ]
      }
    },
    {
      "type": "Feature",
      "properties": {
        "norad_id": 31175,
        "name": "FENGYUN 1C DEB",
        "group": "fengyun-1c-debris",
        "lat": 2.494842178126291,
        "lon": -21.976181777842072,
        "alt_km": 749.1243865389515,
        "timestamp": "2025-12-04T07:39:36.415811+00:00",
        "meta_object_name": "FENGYUN 1C DEB",
        "meta_object_id": "1999-025BJD",
        "meta_epoch": "2025-12-01T05:36:03.316608",
        "meta_mean_motion": 14.59321581,
        "meta_eccentricity": 0.00740678,
        "meta_inclination": 98.3999,
        "meta_ra_of_asc_node": 335.2701,
        "meta_arg_of_pericenter": 201.7312,
        "meta_mean_anomaly": 158.0741,
        "meta_ephemeris_type": 0,
        "meta_classification_type": "U",
        "meta_norad_cat_id": 31175,
        "meta_element_set_no": 999,
        "meta_rev_at_epoch": 65471,
        "meta_bstar": 0.0049038811,
        "meta_mean_motion_dot": 0.00024116,
        "meta_mean_motion_ddot": 0,
        "tle_line1": "1 31175U 99025BJD 25335.23337172  .00024116  00000+0  49039-2 0  9998",
        "tle_line2": "2 31175  98.3999 335.2701 0074067 201.7312 158.0741 14.59321581654715"
      },
      "geometry": {
        "type": "Point",
        "coordinates": [
          -21.976181777842072,
          2.494842178126291
        ]
      }
    }
  ]
}